start=new Date('2022-01-02T00:00:00.000Z').valueOf();
sats=[{"CENTER_NAME":"EARTH","GP_ID":"192866539","ARG_OF_PERICENTER":"322.2957","NORAD_CAT_ID":"45231","MEAN_ANOMALY":"37.7610","TLE_LINE2":"2 45231  53.0307 298.6418 0006433 322.2957  37.7610 15.76711500106137","EPOCH":"2022-01-01T01:28:55.606080","MEAN_MOTION_DDOT":"0.0000000000000","OBJECT_ID":"2020-012BF","CLASSIFICATION_TYPE":"U","PERIOD":"91.329","BSTAR":"0.00001552900000","TIME_SYSTEM":"UTC","MEAN_MOTION":"15.76711500","REF_FRAME":"TEME","INCLINATION":"53.0307","ELEMENT_SET_NO":"999","RCS_SIZE":"LARGE","SEMIMAJOR_AXIS":"6717.902","FILE":"3255244","COUNTRY_CODE":"US","APOAPSIS":"344.089","OBJECT_TYPE":"PAYLOAD","DECAY_DATE":null,"RA_OF_ASC_NODE":"298.6418","MEAN_MOTION_DOT":"0.00001879","REV_AT_EPOCH":"10613","PERIAPSIS":"335.446","TLE_LINE1":"1 45231U 20012BF  22001.06175470  .00001879  00000-0  15529-4 0  9996","EPHEMERIS_TYPE":"0","SITE":"AFETR","MEAN_ELEMENT_THEORY":"SGP4","OBJECT_NAME":"STARLINK-1229","ECCENTRICITY":"0.00064330","LAUNCH_DATE":"2020-02-17"},{"MEAN_MOTION":"15.06399459","TIME_SYSTEM":"UTC","PERIOD":"95.592","BSTAR":"0.00006516100000","ELEMENT_SET_NO":"999","RCS_SIZE":"LARGE","REF_FRAME":"TEME","INCLINATION":"53.0556","NORAD_CAT_ID":"45232","TLE_LINE2":"2 45232  53.0556  27.0490 0001448  73.5214 286.5934 15.06399459105063","MEAN_ANOMALY":"286.5934","GP_ID":"192866789","CENTER_NAME":"EARTH","ARG_OF_PERICENTER":"73.5214","CLASSIFICATION_TYPE":"U","MEAN_MOTION_DDOT":"0.0000000000000","EPOCH":"2022-01-01T11:19:52.210848","OBJECT_ID":"2020-012BG","OBJECT_NAME":"STARLINK-1235","SITE":"AFETR","MEAN_ELEMENT_THEORY":"SGP4","LAUNCH_DATE":"2020-02-17","ECCENTRICITY":"0.00014480","OBJECT_TYPE":"PAYLOAD","APOAPSIS":"548.218","COUNTRY_CODE":"US","DECAY_DATE":null,"SEMIMAJOR_AXIS":"6925.350","FILE":"3255244","TLE_LINE1":"1 45232U 20012BG  22001.47213207  .00000689  00000-0  65161-4 0  9998","EPHEMERIS_TYPE":"0","RA_OF_ASC_NODE":"27.0490","REV_AT_EPOCH":"10506","PERIAPSIS":"546.212","MEAN_MOTION_DOT":"0.00000689"},{"LAUNCH_DATE":"2020-02-17","ECCENTRICITY":"0.00011920","OBJECT_NAME":"STARLINK-1238","SITE":"AFETR","MEAN_ELEMENT_THEORY":"SGP4","TLE_LINE1":"1 45233U 20012BH  22001.38551678  .00000643  00000-0  62076-4 0  9998","EPHEMERIS_TYPE":"0","RA_OF_ASC_NODE":"47.4408","MEAN_MOTION_DOT":"0.00000643","REV_AT_EPOCH":"10475","PERIAPSIS":"546.411","COUNTRY_CODE":"US","APOAPSIS":"548.062","OBJECT_TYPE":"PAYLOAD","DECAY_DATE":null,"SEMIMAJOR_AXIS":"6925.372","FILE":"3255244","ELEMENT_SET_NO":"999","RCS_SIZE":"LARGE","REF_FRAME":"TEME","INCLINATION":"53.0568","MEAN_MOTION":"15.06392407","BSTAR":"0.00006207600000","PERIOD":"95.593","TIME_SYSTEM":"UTC","CLASSIFICATION_TYPE":"U","EPOCH":"2022-01-01T09:15:08.649792","MEAN_MOTION_DDOT":"0.0000000000000","OBJECT_ID":"2020-012BH","NORAD_CAT_ID":"45233","MEAN_ANOMALY":"267.7291","TLE_LINE2":"2 45233  53.0568  47.4408 0001192  92.3835 267.7291 15.06392407104754","CENTER_NAME":"EARTH","GP_ID":"192867040","ARG_OF_PERICENTER":"92.3835"},{"SEMIMAJOR_AXIS":"6925.383","FILE":"3255244","OBJECT_TYPE":"PAYLOAD","COUNTRY_CODE":"US","APOAPSIS":"548.078","DECAY_DATE":null,"RA_OF_ASC_NODE":"66.6637","REV_AT_EPOCH":"10448","PERIAPSIS":"546.418","MEAN_MOTION_DOT":"0.00001333","TLE_LINE1":"1 45234U 20012BJ  22001.55691202  .00001333  00000-0  10838-3 0  9991","EPHEMERIS_TYPE":"0","SITE":"AFETR","MEAN_ELEMENT_THEORY":"SGP4","OBJECT_NAME":"STARLINK-1243","ECCENTRICITY":"0.00011990","LAUNCH_DATE":"2020-02-17","GP_ID":"192867782","CENTER_NAME":"EARTH","ARG_OF_PERICENTER":"85.9245","NORAD_CAT_ID":"45234","TLE_LINE2":"2 45234  53.0540  66.6637 0001199  85.9245 274.1881 15.06388759104484","MEAN_ANOMALY":"274.1881","MEAN_MOTION_DDOT":"0.0000000000000","EPOCH":"2022-01-01T13:21:57.198528","OBJECT_ID":"2020-012BJ","CLASSIFICATION_TYPE":"U","TIME_SYSTEM":"UTC","PERIOD":"95.593","BSTAR":"0.00010838000000","MEAN_MOTION":"15.06388759","REF_FRAME":"TEME","INCLINATION":"53.0540","ELEMENT_SET_NO":"999","RCS_SIZE":"LARGE"},{"MEAN_ANOMALY":"280.2620","TLE_LINE2":"2 45235  53.0554  66.4529 0001373  79.8523 280.2620 15.06390274104544","NORAD_CAT_ID":"45235","ARG_OF_PERICENTER":"79.8523","CENTER_NAME":"EARTH","GP_ID":"192866039","CLASSIFICATION_TYPE":"U","OBJECT_ID":"2020-012BK","EPOCH":"2022-01-01T14:36:15.680448","MEAN_MOTION_DDOT":"0.0000000000000","MEAN_MOTION":"15.06390274","BSTAR":"0.00008847900000","PERIOD":"95.593","TIME_SYSTEM":"UTC","RCS_SIZE":"LARGE","ELEMENT_SET_NO":"999","INCLINATION":"53.0554","REF_FRAME":"TEME","DECAY_DATE":null,"APOAPSIS":"548.194","COUNTRY_CODE":"US","OBJECT_TYPE":"PAYLOAD","FILE":"3255244","SEMIMAJOR_AXIS":"6925.378","EPHEMERIS_TYPE":"0","TLE_LINE1":"1 45235U 20012BK  22001.60851482  .00001036  00000-0  88479-4 0  9993","MEAN_MOTION_DOT":"0.00001036","PERIAPSIS":"546.293","REV_AT_EPOCH":"10454","RA_OF_ASC_NODE":"66.4529","OBJECT_NAME":"STARLINK-1246","MEAN_ELEMENT_THEORY":"SGP4","SITE":"AFETR","LAUNCH_DATE":"2020-02-17","ECCENTRICITY":"0.00013730"},{"ECCENTRICITY":"0.00012920","LAUNCH_DATE":"2020-02-17","MEAN_ELEMENT_THEORY":"SGP4","SITE":"AFETR","OBJECT_NAME":"STARLINK-1247","MEAN_MOTION_DOT":"0.00006392","PERIAPSIS":"546.316","REV_AT_EPOCH":"10507","RA_OF_ASC_NODE":"26.5232","EPHEMERIS_TYPE":"0","TLE_LINE1":"1 45236U 20012BL  22001.59008935  .00006392  00000-0  44759-3 0  9991","FILE":"3255246","SEMIMAJOR_AXIS":"6925.346","DECAY_DATE":null,"APOAPSIS":"548.106","COUNTRY_CODE":"US","OBJECT_TYPE":"PAYLOAD","INCLINATION":"53.0537","REF_FRAME":"TEME","RCS_SIZE":"LARGE","ELEMENT_SET_NO":"999","BSTAR":"0.00044759000000","PERIOD":"95.592","TIME_SYSTEM":"UTC","MEAN_MOTION":"15.06400805","OBJECT_ID":"2020-012BL","EPOCH":"2022-01-01T14:09:43.719840","MEAN_MOTION_DDOT":"0.0000000000000","CLASSIFICATION_TYPE":"U","ARG_OF_PERICENTER":"78.9356","CENTER_NAME":"EARTH","GP_ID":"192891208","MEAN_ANOMALY":"281.1778","TLE_LINE2":"2 45236  53.0537  26.5232 0001292  78.9356 281.1778 15.06400805105073","NORAD_CAT_ID":"45236"},{"RA_OF_ASC_NODE":"27.6295","MEAN_MOTION_DOT":"0.00000797","REV_AT_EPOCH":"10504","PERIAPSIS":"546.258","TLE_LINE1":"1 45237U 20012BM  22001.34681150  .00000797  00000-0  72398-4 0  9995","EPHEMERIS_TYPE":"0","SEMIMAJOR_AXIS":"6925.360","FILE":"3255246","APOAPSIS":"548.191","COUNTRY_CODE":"US","OBJECT_TYPE":"PAYLOAD","DECAY_DATE":null,"ECCENTRICITY":"0.00013960","LAUNCH_DATE":"2020-02-17","SITE":"AFETR","MEAN_ELEMENT_THEORY":"SGP4","OBJECT_NAME":"STARLINK-1270","EPOCH":"2022-01-01T08:19:24.513600","MEAN_MOTION_DDOT":"0.0000000000000","OBJECT_ID":"2020-012BM","CLASSIFICATION_TYPE":"U","CENTER_NAME":"EARTH","GP_ID":"192891458","ARG_OF_PERICENTER":"77.7833","NORAD_CAT_ID":"45237","MEAN_ANOMALY":"282.3313","TLE_LINE2":"2 45237  53.0558  27.6295 0001396  77.7833 282.3313 15.06396416105047","REF_FRAME":"TEME","INCLINATION":"53.0558","ELEMENT_SET_NO":"999","RCS_SIZE":"LARGE","PERIOD":"95.592","BSTAR":"0.00007239800000","TIME_SYSTEM":"UTC","MEAN_MOTION":"15.06396416"},{"TIME_SYSTEM":"UTC","PERIOD":"95.595","BSTAR":"0.00066343000000","MEAN_MOTION":"15.06348398","INCLINATION":"53.0540","REF_FRAME":"TEME","RCS_SIZE":"LARGE","ELEMENT_SET_NO":"999","ARG_OF_PERICENTER":"89.6834","GP_ID":"192892723","CENTER_NAME":"EARTH","TLE_LINE2":"2 45360  53.0540 156.3127 0002075  89.6834 270.4392 15.06348398 99826","MEAN_ANOMALY":"270.4392","NORAD_CAT_ID":"45360","OBJECT_ID":"2020-019A","MEAN_MOTION_DDOT":"0.0000000000000","EPOCH":"2022-01-01T15:17:23.746560","CLASSIFICATION_TYPE":"U","MEAN_ELEMENT_THEORY":"SGP4","SITE":"AFETR","OBJECT_NAME":"STARLINK-1279","ECCENTRICITY":"0.00020750","LAUNCH_DATE":"2020-03-18","FILE":"3255246","SEMIMAJOR_AXIS":"6925.507","DECAY_DATE":null,"OBJECT_TYPE":"PAYLOAD","APOAPSIS":"548.809","COUNTRY_CODE":"US","REV_AT_EPOCH":"9982","PERIAPSIS":"545.935","MEAN_MOTION_DOT":"0.00009600","RA_OF_ASC_NODE":"156.3127","EPHEMERIS_TYPE":"0","TLE_LINE1":"1 45360U 20019A   22001.63708040  .00009600  00000-0  66343-3 0  9993"},{"ECCENTRICITY":"0.00024460","LAUNCH_DATE":"2020-03-18","MEAN_ELEMENT_THEORY":"SGP4","SITE":"AFETR","OBJECT_NAME":"STARLINK-1301","REV_AT_EPOCH":"9971","PERIAPSIS":"545.491","MEAN_MOTION_DOT":"0.00001686","RA_OF_ASC_NODE":"165.7706","EPHEMERIS_TYPE":"0","TLE_LINE1":"1 45361U 20019B   22001.75779655  .00001686  00000-0  13207-3 0  9994","FILE":"3255246","SEMIMAJOR_AXIS":"6925.320","DECAY_DATE":null,"OBJECT_TYPE":"PAYLOAD","APOAPSIS":"548.879","COUNTRY_CODE":"US","INCLINATION":"53.0539","REF_FRAME":"TEME","RCS_SIZE":"LARGE","ELEMENT_SET_NO":"999","TIME_SYSTEM":"UTC","BSTAR":"0.00013207000000","PERIOD":"95.592","MEAN_MOTION":"15.06409424","OBJECT_ID":"2020-019B","MEAN_MOTION_DDOT":"0.0000000000000","EPOCH":"2022-01-01T18:11:13.621920","CLASSIFICATION_TYPE":"U","ARG_OF_PERICENTER":"92.1031","GP_ID":"192892474","CENTER_NAME":"EARTH","TLE_LINE2":"2 45361  53.0539 165.7706 0002446  92.1031 268.0238 15.06409424 99710","MEAN_ANOMALY":"268.0238","NORAD_CAT_ID":"45361"},{"ECCENTRICITY":"0.00023170","LAUNCH_DATE":"2020-03-18","SITE":"AFETR","MEAN_ELEMENT_THEORY":"SGP4","OBJECT_NAME":"STARLINK-1306","RA_OF_ASC_NODE":"185.5636","MEAN_MOTION_DOT":"0.00000793","PERIAPSIS":"545.644","REV_AT_EPOCH":"9943","TLE_LINE1":"1 45362U 20019C   22001.80387434  .00000793  00000-0  72167-4 0  9990","EPHEMERIS_TYPE":"0","SEMIMAJOR_AXIS":"6925.384","FILE":"3255246","APOAPSIS":"548.853","COUNTRY_CODE":"US","OBJECT_TYPE":"PAYLOAD","DECAY_DATE":null,"REF_FRAME":"TEME","INCLINATION":"53.0534","ELEMENT_SET_NO":"999","RCS_SIZE":"LARGE","BSTAR":"0.00007216700000","PERIOD":"95.593","TIME_SYSTEM":"UTC","MEAN_MOTION":"15.06388566","EPOCH":"2022-01-01T19:17:34.742976","MEAN_MOTION_DDOT":"0.0000000000000","OBJECT_ID":"2020-019C","CLASSIFICATION_TYPE":"U","CENTER_NAME":"EARTH","GP_ID":"192891222","ARG_OF_PERICENTER":"79.7875","NORAD_CAT_ID":"45362","MEAN_ANOMALY":"280.3375","TLE_LINE2":"2 45362  53.0534 185.5636 0002317  79.7875 280.3375 15.06388566 99433"}];
